ONEWEB-0249             
1 48967U 21060A   25070.07861785  .00000148  00000+0  35240-3 0  9998
2 48967  87.9104 321.0913 0001666  77.0823 283.0494 13.16596446179967
ONEWEB-0250             
1 48968U 21060B   25070.37870280  .00000028  00000+0  32927-4 0  9999
2 48968  87.9098 320.3012 0002400  54.1033 306.0325 13.25704532180180
ONEWEB-0252             
1 48970U 21060D   25070.41427595 -.00000004  00000+0 -44006-4 0  9991
2 48970  87.9101 321.0176 0001835  91.4224 268.7117 13.16595342180050
ONEWEB-0253             
1 48971U 21060E   25070.40319066  .00000015  00000+0  50119-5 0  9997
2 48971  87.9100 321.0262 0001973  78.0779 282.0573 13.16596208179971
ONEWEB-0254             
1 48972U 21060F   25070.41269238 -.00000080  00000+0 -24364-3 0  9999
2 48972  87.9101 321.0068 0002074  69.6573 290.4781 13.16592358179974
ONEWEB-0255             
1 48973U 21060G   25069.69071955  .00000052  00000+0  10288-3 0  9992
2 48973  87.9100 321.1840 0001960  74.0913 286.0433 13.16596067178676
ONEWEB-0256             
1 48974U 21060H   25070.40080791  .00000038  00000+0  66531-4 0  9999
2 48974  87.9104 321.0543 0001754  85.5183 274.6148 13.16592661180021
ONEWEB-0257             
1 48975U 21060J   25070.12927354  .00000153  00000+0  36759-3 0  9990
2 48975  87.9099 321.0718 0001965  80.4126 279.7227 13.16597264179941
